
# Worst residual: 14.66 km
# MJD 58881.000000 (2020 Feb  2  0:00)
2019-021B
1 44187U 19021B   20033.49919926  .00000000  00000-0  00000-0 0  7228
2 44187 021.8617 339.3776 8674625 237.7183 326.4988 00.76114437    01

# Worst residual: 15.39 km
# MJD 58882.000000 (2020 Feb  3  0:00)
2019-021B
1 44187U 19021B   20034.49919926  .00000000  00000-0  00000-0 0  7229
2 44187 021.8567 339.2626 8675086 237.9260 240.4264 00.76106507    09

# Worst residual: 12.71 km
# MJD 58883.000000 (2020 Feb  4  0:00)
2019-021B
1 44187U 19021B   20035.49919926  .00000000  00000-0  00000-0 0  7220
2 44187 021.8433 339.0993 8674705 238.1668 154.3698 00.76114561    01

# Worst residual: 10.47 km
# MJD 58884.000000 (2020 Feb  5  0:00)
2019-021B
1 44187U 19021B   20036.49919926  .00000000  00000-0  00000-0 0  7221
2 44187 021.8469 339.0034 8671960 238.3460 068.3101 00.76117997    07

# Worst residual: 13.78 km
# MJD 58885.000000 (2020 Feb  6  0:00)
2019-021B
1 44187U 19021B   20037.49919926  .00000000  00000-0  00000-0 0  7222
2 44187 021.8401 338.8781 8671044 238.5490 342.2397 00.76123643    03

# Worst residual: 16.88 km
# MJD 58886.000000 (2020 Feb  7  0:00)
2019-021B
1 44187U 19021B   20038.49919926  .00000000  00000-0  00000-0 0  7223
2 44187 021.8374 338.7759 8671540 238.7308 256.1883 00.76110429    08

# Worst residual: 11.83 km
# MJD 58887.000000 (2020 Feb  8  0:00)
2019-021B
1 44187U 19021B   20039.49919926  .00000000  00000-0  00000-0 0  7224
2 44187 021.8234 338.6135 8673825 238.9625 170.1462 00.76120342    05

# Worst residual: 15.84 km
# MJD 58888.000000 (2020 Feb  9  0:00)
2019-021B
1 44187U 19021B   20040.49919926  .00000000  00000-0  00000-0 0  7226
2 44187 021.8245 338.5124 8671903 239.1484 084.0929 00.76110857    06

# Worst residual: 11.62 km
# MJD 58889.000000 (2020 Feb 10  0:00)
2019-021B
1 44187U 19021B   20041.49919926  .00000000  00000-0  00000-0 0  7227
2 44187 021.8178 338.3815 8672390 239.3624 358.0058 00.76136262    00

# Worst residual: 14.40 km
# MJD 58890.000000 (2020 Feb 11  0:00)
2019-021B
1 44187U 19021B   20042.49919926  .00000000  00000-0  00000-0 0  7228
2 44187 021.8167 338.2881 8673064 239.5411 271.9143 00.76106234    09

# Worst residual: 8.24 km
# MJD 58891.000000 (2020 Feb 12  0:00)
2019-021B
1 44187U 19021B   20043.49919926  .00000000  00000-0  00000-0 0  7229
2 44187 021.8051 338.1264 8675082 239.7876 185.8458 00.76112607    07

# Worst residual: 12.97 km
# MJD 58892.000000 (2020 Feb 13  0:00)
2019-021B
1 44187U 19021B   20044.49919926  .00000000  00000-0  00000-0 0  7220
2 44187 021.8055 338.0249 8672780 239.9768 099.7816 00.76104474    01

# Worst residual: 14.74 km
# MJD 58893.000000 (2020 Feb 14  0:00)
2019-021B
1 44187U 19021B   20045.49919926  .00000000  00000-0  00000-0 0  7221
2 44187 021.8048 337.9158 8672467 240.1689 013.7101 00.76124694    07

# Worst residual: 11.64 km
# MJD 58894.000000 (2020 Feb 15  0:00)
2019-021B
1 44187U 19021B   20046.49919926  .00000000  00000-0  00000-0 0  7222
2 44187 021.8025 337.8140 8672548 240.3528 287.6410 00.76104377    07

# Worst residual: 8.54 km
# MJD 58895.000000 (2020 Feb 16  0:00)
2019-021B
1 44187U 19021B   20047.49919926  .00000000  00000-0  00000-0 0  7223
2 44187 021.7962 337.6770 8674783 240.5732 201.5883 00.76114487    07

# Worst residual: 12.66 km
# MJD 58896.000000 (2020 Feb 17  0:00)
2019-021B
1 44187U 19021B   20048.49919926  .00000000  00000-0  00000-0 0  7224
2 44187 021.7934 337.5618 8673029 240.7726 115.5274 00.76104209    02

# Worst residual: 10.23 km
# MJD 58897.000000 (2020 Feb 18  0:00)
2019-021B
1 44187U 19021B   20049.49919926  .00000000  00000-0  00000-0 0  7225
2 44187 021.7916 337.4422 8673106 240.9747 029.4666 00.76129678    00

# Worst residual: 13.66 km
# MJD 58898.000000 (2020 Feb 19  0:00)
2019-021B
1 44187U 19021B   20050.49919926  .00000000  00000-0  00000-0 0  7227
2 44187 021.7832 337.3136 8673432 241.1876 303.3769 00.76114217    07

# Worst residual: 10.58 km
# MJD 58899.000000 (2020 Feb 20  0:00)
2019-021B
1 44187U 19021B   20051.49919926  .00000000  00000-0  00000-0 0  7228
2 44187 021.7812 337.1973 8675302 241.3897 217.3224 00.76117138    00

# Worst residual: 15.45 km
# MJD 58900.000000 (2020 Feb 21  0:00)
2019-021B
1 44187U 19021B   20052.49919926  .00000000  00000-0  00000-0 0  7229
2 44187 021.7726 337.0595 8673174 241.6054 131.2715 00.76109139    07

# Worst residual: 13.01 km
# MJD 58901.000000 (2020 Feb 22  0:00)
2019-021B
1 44187U 19021B   20053.49919926  .00000000  00000-0  00000-0 0  7220
2 44187 021.7755 336.9594 8672268 241.7871 045.2163 00.76128777    07

# Worst residual: 12.66 km
# MJD 58902.000000 (2020 Feb 23  0:00)
2019-021B
1 44187U 19021B   20054.49919926  .00000000  00000-0  00000-0 0  7221
2 44187 021.7707 336.8432 8672225 241.9830 319.1440 00.76116704    02

# Worst residual: 14.94 km
# MJD 58903.000000 (2020 Feb 24  0:00)
2019-021B
1 44187U 19021B   20055.49919926  .00000000  00000-0  00000-0 0  7222
2 44187 021.7695 336.7412 8674219 242.1684 233.1026 00.76119001    08

# Worst residual: 15.43 km
# MJD 58904.000000 (2020 Feb 25  0:00)
2019-021B
1 44187U 19021B   20056.49919926  .00000000  00000-0  00000-0 0  7223
2 44187 021.7544 336.5697 8674443 242.4099 147.0591 00.76113370    09

# Worst residual: 11.98 km
# MJD 58905.000000 (2020 Feb 26  0:00)
2019-021B
1 44187U 19021B   20057.49919926  .00000000  00000-0  00000-0 0  7224
2 44187 021.7585 336.4764 8673534 242.5916 061.0126 00.76111142    01

# Worst residual: 12.48 km
# MJD 58906.000000 (2020 Feb 27  0:00)
2019-021B
1 44187U 19021B   20058.49919926  .00000000  00000-0  00000-0 0  7225
2 44187 021.7485 336.3261 8674668 242.8241 334.9366 00.76122347    01

# Worst residual: 15.91 km
# MJD 58907.000000 (2020 Feb 28  0:00)
2019-021B
1 44187U 19021B   20059.49919926  .00000000  00000-0  00000-0 0  7226
2 44187 021.7426 336.2088 8675870 243.0295 248.8620 00.76106700    01

# Worst residual: 9.46 km
# MJD 58908.000000 (2020 Feb 29  0:00)
2019-021B
1 44187U 19021B   20060.49919926  .00000000  00000-0  00000-0 0  7228
2 44187 021.7286 336.0293 8676743 243.2936 162.8009 00.76107345    07

# Worst residual: 14.31 km
# MJD 58909.000000 (2020 Mar  1  0:00)
2019-021B
1 44187U 19021B   20061.49919926  .00000000  00000-0  00000-0 0  7229
2 44187 021.7297 335.9170 8675206 243.4980 076.7343 00.76112895    05

# Worst residual: 14.81 km
# MJD 58910.000000 (2020 Mar  2  0:00)
2019-021B
1 44187U 19021B   20062.49919926  .00000000  00000-0  00000-0 0  7220
2 44187 021.7234 335.7792 8674207 243.7223 350.6394 00.76123969    01

# Worst residual: 14.37 km
# MJD 58911.000000 (2020 Mar  3  0:00)
2019-021B
1 44187U 19021B   20063.49919926  .00000000  00000-0  00000-0 0  7221
2 44187 021.7190 335.6660 8673349 243.9216 264.5789 00.76101053    06

# Worst residual: 6.45 km
# MJD 58912.000000 (2020 Mar  4  0:00)
2019-021B
1 44187U 19021B   20064.49919926  .00000000  00000-0  00000-0 0  7222
2 44187 021.7114 335.5161 8674890 244.1523 178.5340 00.76119637    07
